OBJECT_NAME,OBJECT_ID,EPOCH,MEAN_MOTION,ECCENTRICITY,INCLINATION,RA_OF_ASC_NODE,ARG_OF_PERICENTER,MEAN_ANOMALY,EPHEMERIS_TYPE,CLASSIFICATION_TYPE,NORAD_CAT_ID,ELEMENT_SET_NO,REV_AT_EPOCH,BSTAR,MEAN_MOTION_DOT,MEAN_MOTION_DDOT
STARLINK-4588,2022-104BF,2026-07-20T14:00:01.999872,15.29370926,.0001197,53.1587,346.0037,99.9626,323.7962,0,U,53641,999,574,-.95326374E-3,-.27773E-3,0
STARLINK-4622,2022-105A,2026-07-20T05:55:38.707392,15.05657323,.00031104,97.2827,78.5330,80.9672,279.1908,0,U,53648,999,21318,-.34080252E-4,-.548E-5,0
STARLINK-4386,2022-105B,2026-07-20T04:49:30.007200,15.62571671,.00020804,97.6005,87.0471,71.1693,288.9790,0,U,53649,999,21357,.14135571E-2,.127675E-2,0
STARLINK-4380,2022-105C,2026-07-20T09:11:01.893984,15.05653582,.00027649,97.2847,78.6463,84.8150,275.3394,0,U,53650,999,21319,-.135882E-5,-.76E-6,0
STARLINK-4388,2022-105D,2026-07-20T14:00:01.999872,15.70195294,.0001623,97.6000,88.6976,82.2734,203.5103,0,U,53651,999,599,-.55015703E-2,-.617879E-2,0
STARLINK-4374,2022-105E,2026-07-20T04:47:51.585504,15.05664482,.00019905,97.2850,78.4262,85.5031,274.6424,0,U,53652,999,21316,.67861572E-4,.923E-5,0
STARLINK-4390,2022-105F,2026-07-20T14:00:01.999872,15.55250810,.0001582,97.5989,86.5008,83.0100,187.9266,0,U,53653,999,592,.85913754E-2,.62827E-2,0
STARLINK-4420,2022-105G,2026-07-20T06:09:32.860512,15.05653733,.00021274,97.2847,79.5557,89.3105,270.8366,0,U,53654,999,21324,-.9151453E-5,-.188E-5,0
STARLINK-4470,2022-105H,2026-07-20T14:00:01.999872,15.45856244,.00015472,97.6034,88.2644,65.3769,348.3177,0,U,53655,999,595,-.1703597E-1,-.760926E-2,0
STARLINK-4466,2022-105J,2026-07-20T05:47:40.365888,15.05652528,.00026158,97.2850,78.5044,85.0319,275.1207,0,U,53656,999,21317,-.33288809E-4,-.537E-5,0
STARLINK-4452,2022-105L,2026-07-20T09:56:50.106048,15.05648296,.00019305,97.2846,79.7932,85.1900,274.9548,0,U,53658,999,21327,-.21577002E-4,-.368E-5,0
STARLINK-4473,2022-105N,2026-07-20T05:35:42.427680,15.05654784,.00024412,97.2837,78.5028,80.9801,279.1703,0,U,53660,999,21317,-.7930662E-5,-.171E-5,0
STARLINK-4472,2022-105P,2026-07-20T09:30:58.703328,15.05646363,.00023953,97.2849,78.5930,89.4471,270.7031,0,U,53661,999,21319,.9135141E-5,.75E-6,0
STARLINK-4357,2022-105Q,2026-07-20T14:00:01.999872,15.40396380,.00019511,97.6027,87.6562,65.5125,123.9910,0,U,53662,999,599,-.2816762E-1,-.1033107E-1,0
STARLINK-4457,2022-105R,2026-07-20T05:05:45.176352,15.05657176,.00023883,97.2864,79.6027,87.4025,272.7476,0,U,53663,999,21324,.49217958E-4,.654E-5,0
STARLINK-4471,2022-105S,2026-07-20T09:01:00.198336,15.05653018,.00025815,97.2850,79.6698,80.9348,279.2171,0,U,53664,999,21326,.11386677E-4,.108E-5,0
STARLINK-4334,2022-105T,2026-07-20T14:00:01.999872,15.55882555,.0001752,97.6030,88.1073,78.8757,24.3189,0,U,53665,999,592,-.11386142E-1,-.720436E-2,0
STARLINK-4406,2022-105V,2026-07-20T14:00:01.999872,15.37936463,.00027776,97.5969,86.2433,75.1036,156.2325,0,U,53667,999,592,.26505714E-2,.99979E-3,0
STARLINK-4458,2022-105W,2026-07-20T14:00:01.999872,15.45018771,.00017897,97.6029,88.2791,80.6329,179.4143,0,U,53668,999,589,-.21224038E-1,-.919181E-2,0
STARLINK-4464,2022-105X,2026-07-20T14:00:01.999872,15.62558971,.00017215,97.6020,86.6038,71.4044,186.4812,0,U,53669,999,576,.27890416E-2,.255903E-2,0
STARLINK-4459,2022-105Y,2026-07-20T04:49:48.085536,15.05654586,.00016866,97.2847,79.5797,94.5307,265.6113,0,U,53670,999,21324,.24122971E-4,.292E-5,0
STARLINK-4440,2022-105Z,2026-07-20T06:07:35.876640,15.05655649,.00024485,97.2853,78.4478,89.4001,270.7507,0,U,53671,999,21317,-.1669541E-4,-.297E-5,0
STARLINK-4428,2022-105AA,2026-07-20T05:23:45.788064,15.05643002,.00019284,97.2847,78.4763,93.9876,266.1572,0,U,53672,999,21317,-.32216229E-4,-.521E-5,0
STARLINK-4456,2022-105AB,2026-07-20T14:00:01.999872,15.65344499,.00013662,97.6066,85.6078,69.5728,298.4950,0,U,53673,999,589,.56004985E-2,.597792E-2,0
STARLINK-4620,2022-105AC,2026-07-20T05:31:43.061664,15.05661495,.00035942,97.2846,78.4615,63.2937,296.8659,0,U,53674,999,21317,.38256494E-4,.496E-5,0
STARLINK-4617,2022-105AD,2026-07-20T05:57:35.684352,15.05655806,.00022586,97.2849,79.6554,85.9998,274.1488,0,U,53675,999,21325,-.27588822E-4,-.454E-5,0
STARLINK-4621,2022-105AE,2026-07-20T05:03:48.130272,15.05657525,.00016573,97.2852,78.4797,91.4943,268.6474,0,U,53676,999,21317,.2729891E-4,.338E-5,0
STARLINK-4579,2022-105AF,2026-07-20T09:44:52.493568,15.05655683,.00023657,97.2851,79.7528,87.3410,272.8088,0,U,53677,999,21327,-.4261022E-5,-.118E-5,0
STARLINK-4632,2022-105AH,2026-07-20T05:45:38.489184,15.05657078,.00021991,97.2841,79.6656,87.0520,273.0959,0,U,53679,999,21325,-.73905007E-4,-.1123E-4,0
STARLINK-4630,2022-105AJ,2026-07-20T09:40:53.122368,15.05653511,.00022116,97.2846,79.7312,87.4322,272.7159,0,U,53680,999,21327,-.87857833E-4,-.1324E-4,0
STARLINK-4424,2022-105AK,2026-07-20T14:00:01.999872,15.88200283,.00010462,97.5979,88.3525,92.4481,246.7022,0,U,53681,999,601,.19690504E-2,.570834E-2,0
STARLINK-4438,2022-105AL,2026-07-20T05:21:41.517216,15.05657335,.00021748,97.2843,79.5099,71.6065,288.5399,0,U,53682,999,21324,.33792365E-4,.431E-5,0
STARLINK-4625,2022-105AM,2026-07-20T04:51:50.418432,15.05654609,.00022062,97.2855,78.4817,84.8560,275.2920,0,U,53683,999,21317,.1543642E-4,.166E-5,0
STARLINK-4624,2022-105AN,2026-07-20T04:55:49.540800,15.05652780,.00020684,97.2851,78.4338,85.1300,275.0164,0,U,53684,999,21314,.47289845E-4,.626E-5,0
STARLINK-4626,2022-105AP,2026-07-20T05:51:38.632896,15.05653868,.00019447,97.2852,78.4193,83.0719,277.0730,0,U,53685,999,21317,-.4064148E-5,-.115E-5,0
STARLINK-4467,2022-105AQ,2026-07-20T08:51:06.901632,15.05650338,.00028422,97.2835,78.5482,80.1790,279.9759,0,U,53686,999,21319,.19963406E-3,.2825E-4,0
STARLINK-4569,2022-105AR,2026-07-20T05:17:42.280800,15.05658092,.00023021,97.2850,79.5126,76.1752,283.9732,0,U,53687,999,21324,.19400234E-4,.224E-5,0
STARLINK-4571,2022-105AS,2026-07-20T14:49:57.547488,15.05659375,.00022468,97.2850,78.8116,80.9544,279.1938,0,U,53688,999,21323,.38588266E-4,.501E-5,0
STARLINK-4570,2022-105AU,2026-07-20T04:59:48.941376,15.05662388,.00014922,97.2930,78.4430,79.0468,281.0928,0,U,53690,999,21317,.19356177E-3,.2738E-4,0
STARLINK-4560,2022-105AV,2026-07-20T14:16:01.528032,15.05655218,.00031823,97.2853,79.9073,82.9277,277.2312,0,U,53691,999,21330,.10015611E-4,.88E-6,0
STARLINK-4572,2022-105AW,2026-07-20T05:35:22.550496,15.28608606,.00034737,97.6031,90.3277,97.0640,263.0995,0,U,53692,999,21375,.70497558E-3,.19574E-3,0
STARLINK-4566,2022-105AX,2026-07-20T05:13:43.998240,15.05661336,.0001951,97.2848,79.6433,91.3738,268.7713,0,U,53693,999,21325,-.36027509E-4,-.576E-5,0
YAOGAN-33 02,2022-106A,2026-07-20T14:25:04.756800,14.58735743,.00031295,98.1822,208.9631,69.8530,290.3006,0,U,53698,999,20659,.24285589E-4,.68E-6,0
STARLINK-4725,2022-107A,2026-07-20T04:47:46.254624,15.08840832,.00014167,53.1612,8.5973,92.0633,268.0521,0,U,53700,999,21486,-.7210175E-5,-.403E-5,0
STARLINK-4711,2022-107B,2026-07-20T11:04:00.717024,15.08835253,.0001271,53.1615,7.3839,94.4202,265.6935,0,U,53701,999,21490,.33252798E-4,.241E-5,0
STARLINK-4724,2022-107C,2026-07-20T14:00:01.999872,15.23374623,.000108,53.1602,351.3610,91.8296,120.5349,0,U,53702,999,569,.57456294E-3,.13529E-3,0
STARLINK-4731,2022-107D,2026-07-20T11:25:13.974816,15.08833513,.00010724,53.1617,7.4738,91.5168,268.5946,0,U,53703,999,21490,.1363218E-4,-.71E-6,0
STARLINK-4714,2022-107E,2026-07-20T14:15:42.199488,15.31703831,.00012188,53.1606,3.9971,83.3798,276.7342,0,U,53704,999,21480,.20964831E-4,.286E-5,0
STARLINK-4717,2022-107F,2026-07-20T10:53:31.524576,15.08835900,.00012207,53.1621,8.0458,90.5354,269.5777,0,U,53705,999,21489,.2141152E-4,.53E-6,0
STARLINK-4716,2022-107G,2026-07-19T18:38:26.791872,15.08830469,.00013094,53.1613,10.9314,91.6194,268.4947,0,U,53706,999,21479,.22151745E-4,.65E-6,0
STARLINK-4667,2022-107H,2026-07-20T14:00:01.999872,15.30562059,.0000926,53.1586,350.9378,79.3577,349.9213,0,U,53707,999,570,.40170708E-3,.1169E-3,0
STARLINK-4694,2022-107J,2026-07-20T14:00:01.999872,15.21359023,.00014444,53.1606,351.4088,95.1774,94.7662,0,U,53708,999,584,.49741383E-3,.10977E-3,0
STARLINK-4685,2022-107K,2026-07-17T19:41:09.291552,15.08854594,.00014494,53.1618,24.3607,99.3072,260.8084,0,U,53709,999,21412,.2131219E-3,.3107E-4,0
STARLINK-4627,2022-107M,2026-07-19T20:27:56.068128,15.34387485,.00014183,53.1616,10.7891,91.7281,268.3884,0,U,53711,999,21449,.3706045E-4,.875E-5,0
STARLINK-4683,2022-107N,2026-07-20T14:00:01.999872,15.13852430,.00017476,53.1603,11.7097,44.1082,335.3230,0,U,53712,999,584,.63790104E-3,.11383E-3,0
STARLINK-4686,2022-107R,2026-07-20T11:58:11.635392,15.35406185,.00008184,53.1618,14.0956,82.0962,278.0134,0,U,53715,999,21451,.41324161E-4,.1062E-4,0
STARLINK-4699,2022-107S,2026-07-20T14:00:01.999872,15.35252607,.00010481,53.1613,15.0365,80.1700,58.4098,0,U,53716,999,584,.76122813E-3,.2614E-3,0
STARLINK-4695,2022-107U,2026-07-20T10:54:42.312096,15.29356859,.00010206,53.1607,16.6184,93.7294,266.3823,0,U,53718,999,21446,.8460542E-5,-.112E-5,0
STARLINK-4644,2022-107V,2026-07-19T19:12:48.849696,15.08832979,.00011321,53.1613,350.3891,90.9735,269.1386,0,U,53719,999,21478,.26684047E-4,.137E-5,0
STARLINK-4642,2022-107W,2026-07-20T12:06:33.987456,15.35403597,.00010271,53.1618,13.4271,90.4509,269.6612,0,U,53720,999,21452,.41579037E-4,.107E-4,0
STARLINK-4707,2022-107X,2026-07-20T14:00:01.999872,15.34214996,.00012501,53.1596,15.1551,61.4325,19.5005,0,U,53721,999,580,.14757939E-2,.49522E-3,0
STARLINK-4700,2022-107Y,2026-07-20T14:00:01.999872,15.34199178,.00018402,53.1604,15.1088,77.0105,26.9150,0,U,53722,999,585,.18113035E-2,.60929E-3,0
STARLINK-4705,2022-107Z,2026-07-20T14:00:01.999872,15.28835643,.00012867,53.1589,15.3659,106.9978,228.5768,0,U,53723,999,579,.55755787E-3,.15513E-3,0
STARLINK-4663,2022-107AA,2026-07-20T14:00:01.999872,15.35412017,.00011256,53.1610,14.0890,76.9938,192.4861,0,U,53724,999,555,-.40984179E-3,-.14654E-3,0
